1 45393U 20019AK  22365.20982523  .00015539  00000-0  10590-2 0  9995
2 45393  53.0553 334.1765 0002362  40.5573 319.5591 15.06427758154258
1 45393U 20019AK  22365.34251605  .00012781  00000-0  87463-3 0  9990
2 45393  53.0555 333.5814 0002359  40.0501 320.0662 15.06431830154274
1 45393U 20019AK  22365.60789913  .00006650  00000-0  46456-3 0  9992
2 45393  53.0553 332.3893 0002334  40.9135 319.2029 15.06428248154312
1 45393U 20019AK  22365.60789913  .00006650  00000-0  46456-3 0  9992
2 45393  53.0553 332.3893 0002334  40.9135 319.2029 15.06428248154312
1 45393U 20019AK  23001.27137043 -.00010112  00000-0 -66107-3 0  9999
2 45393  53.0552 329.4113 0002272  41.4079 318.7082 15.06389861154418
1 45393U 20019AK  23001.60311059 -.00005473  00000-0 -34897-3 0  9992
2 45393  53.0553 327.9220 0002197  45.8955 314.2215 15.06378242154463
1 45393U 20019AK  23001.93485081  .00001106  00000-0  93200-4 0  9996
2 45393  53.0552 326.4330 0002191  39.4147 320.7002 15.06376159154511
1 45393U 20019AK  23002.33293391  .00008088  00000-0  56135-3 0  9993
2 45393  53.0551 324.6459 0002305  48.6622 311.4565 15.06391362154579
1 45393U 20019AK  23002.59832103  .00010755  00000-0  73981-3 0  9993
2 45393  53.0553 323.4546 0002279  44.2109 315.9061 15.06398527154612
1 45393U 20019AK  23003.59352532  .00004687  00000-0  33333-3 0  9991
2 45393  53.0553 318.9878 0002168  42.4257 317.6899 15.06401041154760
1 45393U 20019AK  23003.59352532  .00004687  00000-0  33333-3 0  9991
2 45393  53.0553 318.9878 0002168  42.4257 317.6899 15.06401041154760
1 45393U 20019AK  23004.58872139  .00009517  00000-0  65657-3 0  9992
2 45393  53.0550 314.5200 0002054  44.0365 316.0787 15.06419594154918
1 45393U 20019AK  23004.85410873  .00006445  00000-0  45103-3 0  9996
2 45393  53.0550 313.3285 0002016  43.3913 316.7234 15.06412498154951
1 45393U 20019AK  23004.85410873  .00006445  00000-0  45103-3 0  9996
2 45393  53.0550 313.3285 0002016  43.3913 316.7234 15.06412498154951
1 45393U 20019AK  23005.25218042  .00013075  00000-0  89420-3 0  9992
2 45393  53.0552 311.5412 0002076  46.2037 313.9123 15.06433700155013
1 45393U 20019AK  23005.31852490  .00015271  00000-0  10408-2 0  9999
2 45393  53.0552 311.2432 0002045  46.6393 313.4766 15.06438688155026
1 45393U 20019AK  23005.31852490  .00015271  00000-0  10408-2 0  9999
2 45393  53.0552 311.2432 0002045  46.6393 313.4766 15.06438688155026
1 45393U 20019AK  23006.84451247  .00007119  00000-0  49659-3 0  9996
2 45393  53.0555 304.3935 0001812  37.5243 322.5872 15.06379498155251
1 45393U 20019AK  23006.84451247  .00007119  00000-0  49659-3 0  9996
2 45393  53.0555 304.3935 0001812  37.5243 322.5872 15.06379498155251
1 45393U 20019AK  23007.10990227  .00021591  00000-0  14642-2 0  9995
2 45393  53.0552 303.2030 0001871  50.6364 309.4791 15.06392684155297
1 45393U 20019AK  23007.10990227  .00021591  00000-0  14642-2 0  9995
2 45393  53.0552 303.2030 0001871  50.6364 309.4791 15.06392684155297
1 45393U 20019AK  23008.10512909  .00018616  00000-0  12661-2 0  9996
2 45393  53.0534 298.7342 0002347  61.0486 299.0738 15.06377253155448
1 45393U 20019AK  23008.50321143  .00019174  00000-0  13027-2 0  9995
2 45393  53.0555 296.9489 0001880  65.2855 294.8330 15.06397623155501
1 45393U 20019AK  23009.16666755  .00027200  00000-0  18358-2 0  9990
2 45393  53.0545 293.9702 0001832  61.5155 298.6018 15.06441639155607
1 45393U 20019AK  23009.49839842  .00021400  00000-0  14505-2 0  9991
2 45393  53.0545 292.4806 0001786  64.9355 295.1819 15.06417118155654
1 45393U 20019AK  23009.69743847  .00005495  00000-0  38734-3 0  9999
2 45393  53.0543 291.5864 0001357  69.7948 290.3187 15.06415013155681
1 45393U 20019AK  23009.76378503  .00006563  00000-0  45890-3 0  9998
2 45393  53.0545 291.2898 0001336  67.7373 292.3758 15.06414924155691
1 45393U 20019AK  23010.49360246  .00002469  00000-0  18458-3 0  9996
2 45393  53.0521 288.0137 0001457  67.1120 293.0022 15.06395429155806
1 45393U 20019AK  23010.49360246  .00002469  00000-0  18458-3 0  9996
2 45393  53.0521 288.0137 0001457  67.1120 293.0022 15.06395429155806
1 45393U 20019AK  23010.75899359 -.00000719  00000-0 -29361-4 0  9991
2 45393  53.0517 286.8219 0002211  73.4306 286.6925 15.06396872155840
1 45393U 20019AK  23011.02438508 -.00000257  00000-0  16289-5 0  9999
2 45393  53.0535 285.6314 0001830  70.4015 289.7172 15.06386474155882
1 45393U 20019AK  23011.02438508 -.00000257  00000-0  16289-5 0  9999
2 45393  53.0535 285.6314 0001830  70.4015 289.7172 15.06386474155882
1 45393U 20019AK  23011.75419194  .00007974  00000-0  55342-3 0  9992
2 45393  53.0542 282.3538 0001550  76.3492 283.7669 15.06413899155994
1 45393U 20019AK  23011.82054011  .00013012  00000-0  89041-3 0  9996
2 45393  53.0539 282.0559 0001593  77.8093 282.3075 15.06416904156009
1 45393U 20019AK  23012.74938774 -.00003533  00000-0 -21836-3 0  9992
2 45393  53.0541 277.8861 0001234  59.3611 300.7500 15.06403947156149
1 45393U 20019AK  23012.94842714  .00000959  00000-0  83260-4 0  9999
2 45393  53.0537 276.9926 0001630  82.4196 277.6979 15.06407562156173
1 45393U 20019AK  23013.01477500  .00000278  00000-0  37580-4 0  9993
2 45393  53.0536 276.6950 0001680  80.9655 279.1524 15.06404626156186
1 45393U 20019AK  23013.81094662  .00004591  00000-0  32699-3 0  9992
2 45393  53.0544 273.1206 0001380  71.4404 288.6735 15.06387826156300
1 45393U 20019AK  23014.07633497  .00011193  00000-0  76921-3 0  9998
2 45393  53.0533 271.9295 0001443  83.6945 276.4208 15.06396144156344
1 45393U 20019AK  23014.40806666  .00023556  00000-0  15943-2 0  9997
2 45393  53.0533 270.4402 0001424  83.7597 276.3554 15.06417161156392
1 45393U 20019AK  23015.13785959  .00035079  00000-0  23578-2 0  9995
2 45393  53.0538 267.1637 0001309  80.6453 279.4684 15.06468836156505
1 45393U 20019AK  23015.40325606 -.00005322  00000-0 -33863-3 0  9993
2 45393  53.0538 265.9723 0001296  88.1161 271.9977 15.06401532156547
1 45393U 20019AK  23015.40325606 -.00005322  00000-0 -33863-3 0  9993
2 45393  53.0538 265.9723 0001296  88.1161 271.9977 15.06401532156547
1 45393U 20019AK  23015.86769581  .00019846  00000-0  13486-2 0  9999
2 45393  53.0537 263.8872 0000803 112.4665 247.6409 15.06368643156614
1 45393U 20019AK  23016.00039225  .00027214  00000-0  18404-2 0  9994
2 45393  53.0536 263.2916 0000759 115.2899 244.8168 15.06368934156632
1 45393U 20019AK  23016.39848369  .00030451  00000-0  20556-2 0  9991
2 45393  53.0540 261.5050 0000809 115.8738 244.2334 15.06378007156698
1 45393U 20019AK  23016.39848369  .00030451  00000-0  20556-2 0  9991
2 45393  53.0540 261.5050 0000809 115.8738 244.2334 15.06378007156698
1 45393U 20019AK  23016.92926731  .00016232  00000-0  11066-2 0  9997
2 45393  53.0535 259.1238 0000947 107.3058 252.8034 15.06383507156779
1 45393U 20019AK  23016.92926731  .00016232  00000-0  11066-2 0  9997
2 45393  53.0535 259.1238 0000947 107.3058 252.8034 15.06383507156779
1 45393U 20019AK  23017.39369891  .00010005  00000-0  68986-3 0  9993
2 45393  53.0524 257.0371 0000858 119.6221 240.4853 15.06387215156841
1 45393U 20019AK  23017.92447529  .00008548  00000-0  59212-3 0  9998
2 45393  53.0527 254.6543 0000822 118.1436 241.9636 15.06395942156921
1 45393U 20019AK  23018.05716855  .00009126  00000-0  63076-3 0  9990
2 45393  53.0527 254.0584 0000821 118.9787 241.1284 15.06399445156941
1 45393U 20019AK  23018.91967206  .00010412  00000-0  71650-3 0  9990
2 45393  53.0538 250.1854 0000872 115.9439 244.1639 15.06416524157077
1 45393U 20019AK  23019.05236310  .00011732  00000-0  80474-3 0  9991
2 45393  53.0528 249.5900 0000781 120.3011 239.8055 15.06421655157091
1 45393U 20019AK  23019.05236310  .00011732  00000-0  80474-3 0  9991
2 45393  53.0528 249.5900 0000781 120.3011 239.8055 15.06421655157091
1 45393U 20019AK  23019.78218352  .00000462  00000-0  49919-4 0  9995
2 45393  53.0544 246.3115 0000822 124.1933 235.9134 15.06397259157203
1 45393U 20019AK  23020.31295900  .00002361  00000-0  17731-3 0  9996
2 45393  53.0532 243.9317 0000665  93.2162 266.8903 15.06401339157282
1 45393U 20019AK  23020.91007773  .00009693  00000-0  66850-3 0  9992
2 45393  53.0524 241.2517 0000677  97.3628 262.7438 15.06412293157370
1 45393U 20019AK  23021.30815782  .00004804  00000-0  34112-3 0  9998
2 45393  53.0519 239.4650 0000648  97.1562 262.9500 15.06407847157432
1 45393U 20019AK  23021.63989472  .00001162  00000-0  96894-4 0  9992
2 45393  53.0524 237.9751 0001069  88.2789 271.8323 15.06400820157484
1 45393U 20019AK  23022.83413803  .00002592  00000-0  19283-3 0  9999
2 45393  53.0518 232.6130 0001306  80.9953 279.1184 15.06402267157669
1 45393U 20019AK  23023.56395483  .00002886  00000-0  21258-3 0  9994
2 45393  53.0538 229.3380 0001042  79.1274 280.9832 15.06400139157772
1 45393U 20019AK  23024.82454255  .00001980  00000-0  15174-3 0  9991
2 45393  53.0530 223.6785 0000980  76.5304 283.5794 15.06401401157965
1 45393U 20019AK  23025.55435945 -.00000080  00000-0  13507-4 0  9997
2 45393  53.0528 220.4021 0000984  76.6004 283.5094 15.06396297158074
1 45393U 20019AK  23025.81974687  .00000138  00000-0  28171-4 0  9993
2 45393  53.0537 219.2101 0000995  81.5728 278.5374 15.06398282158115
1 45393U 20019AK  23025.81974687  .00000138  00000-0  28171-4 0  9993
2 45393  53.0537 219.2101 0000995  81.5728 278.5374 15.06398282158115
1 45393U 20019AK  23026.48321545  .00000731  00000-0  67991-4 0  9998
2 45393  53.0535 216.2313 0001018  81.2027 278.9077 15.06395948158212
1 45393U 20019AK  23027.21303082  .00000568  00000-0  57024-4 0  9990
2 45393  53.0537 212.9551 0001008  79.4632 280.6471 15.06396361158321
1 45393U 20019AK  23027.21303082  .00000568  00000-0  57024-4 0  9990
2 45393  53.0537 212.9551 0001008  79.4632 280.6471 15.06396361158321
1 45393U 20019AK  23027.81015519  .00000721  00000-0  67312-4 0  9993
2 45393  53.0538 210.2748 0001000  83.0685 277.0418 15.06393912158412
1 45393U 20019AK  23028.27458232  .00000450  00000-0  49127-4 0  9990
2 45393  53.0540 208.1897 0001010  81.4932 278.6171 15.06396310158489
1 45393U 20019AK  23028.27458232  .00000450  00000-0  49127-4 0  9990
2 45393  53.0540 208.1897 0001010  81.4932 278.6171 15.06396310158489
1 45393U 20019AK  23028.80535467  .00000563  00000-0  56686-4 0  9998
2 45393  53.0540 205.8070 0001007  82.3385 277.7719 15.06399635158564
1 45393U 20019AK  23029.46882927  .00000262  00000-0  36490-4 0  9994
2 45393  53.0539 202.8284 0001055  81.1973 278.9135 15.06391402158669
1 45393U 20019AK  23029.73421672  .00000070  00000-0  23607-4 0  9993
2 45393  53.0539 201.6370 0001054  80.5560 279.5548 15.06393056158703
1 45393U 20019AK  23030.19864121  .00000556  00000-0  56222-4 0  9993
2 45393  53.0541 199.5520 0001043  80.7437 279.3670 15.06397327158777
1 45393U 20019AK  23030.59671936  .00000602  00000-0  59272-4 0  9997
2 45393  53.0540 197.7646 0001049  80.9621 279.1487 15.06400978158836
1 45393U 20019AK  23030.86210315  .00000957  00000-0  83122-4 0  9991
2 45393  53.0540 196.5732 0001051  81.1997 278.9111 15.06404181158876
1 45393U 20019AK  23031.45923330  .00000893  00000-0  78831-4 0  9995
2 45393  53.0529 193.8895 0001529  91.8712 268.2452 15.06392758158962
1 45393U 20019AK  23031.45923330  .00000893  00000-0  78831-4 0  9995
2 45393  53.0529 193.8895 0001529  91.8712 268.2452 15.06392758158962
1 45393U 20019AK  23031.79096999 -.00000504  00000-0 -14935-4 0  9990
2 45393  53.0539 192.4000 0001338 107.5095 252.6040 15.06393149159015
